0 THORAD AGENA D DEB
1 26821U 70025QQ  19183.21553530  .00000604  00000-0  25700-3 0  9996
2 26821  99.9883  86.5707 0077404  59.6273  91.3425 14.28068802341296
0 DELTA 1 DEB
1 26822U 75052KC  19183.08795360  .00000009  00000-0  15229-3 0  9990
2 26822  99.6685 227.2137 0313017  13.2516  14.7095 12.83452372904895
0 DELTA 1 DEB
1 26822U 75052KC  19182.07456787 +.00000006 +00000-0 +14339-3 0  9993
2 26822 099.6686 226.3378 0313060 015.4946 012.4320 12.83452351303281
0 DELTA 1 DEB
1 26823U 75052KD  19182.98092207  .00000311  00000-0  55952-3 0  9992
2 26823 100.0737 353.3216 0044754 265.3319 249.2499 13.49927940363668
0 DELTA 1 DEB
1 26826U 75052KE  19183.05882556  .00000277  00000-0  87228-3 0  9990
2 26826  99.5920  33.1319 0299839 167.1595 348.6817 12.97846906315866
0 DELTA 1 DEB
1 26826U 75052KE  19182.56658793 +.00000241 +00000-0 +77019-3 0  9997
2 26826 099.5921 032.6989 0299808 168.2836 208.8222 12.97846588315672
0 DELTA 1 DEB
1 26829U 75052KH  19182.08946958 -.00000164 +00000-0 -31074-3 0  9997
2 26829 099.6163 232.4769 0257967 032.8102 357.1595 13.09737737183361
0 DELTA 1 DEB
1 26830U 75052KJ  19182.61975788 +.00000165 +00000-0 +46507-3 0  9997
2 26830 099.7502 107.6878 0142347 019.7154 099.9310 13.22602948338459
0 DELTA 1 DEB
1 26832U 75052KL  19182.94608161 +.00000011 +00000-0 +21450-3 0  9993
2 26832 099.6258 338.7161 0622477 210.8433 309.3548 12.21126879269840
0 DELTA 1 DEB
1 26833U 75052KM  19182.96230389 +.00000090 +00000-0 +45130-3 0  9997
2 26833 099.7326 088.6801 0369682 083.1025 338.8980 12.73099055326083
0 DELTA 1 DEB
1 26833U 75052KM  19183.66349507  .00000100  00000-0  48656-3 0  9996
2 26833  99.7325  89.2789 0369701  81.5860 312.5640 12.73099268947644
0 DELTA 1 DEB
1 26835U 75052KP  19182.93030192 +.00000322 +00000-0 +39992-3 0  9993
2 26835 099.6390 317.2954 0042023 249.9932 230.9866 13.72366416371129
0 DELTA 1 DEB
1 26837U 75052KR  19182.56797480 +.00000696 +00000-0 +19090-2 0  9994
2 26837 099.6971 209.7564 0282529 317.5864 196.6687 13.03995150920228
0 DELTA 1 DEB
1 26837U 75052KR  19183.00136609  .00000716  00000-0  19620-2 0  9996
2 26837  99.6971 210.1461 0282506 316.5858  71.1802 13.03995770920276
0 DELTA 1 DEB
1 26838U 75052KS  19183.84380104 -.00000368  00000-0 -99497-3 0  9996
2 26838  99.2685 309.3873 0315712 114.3250  36.4985 12.92259120183747
0 DELTA 1 DEB
1 26839U 75052KT  19183.12136670  .00000092  00000-0  28271-3 0  9999
2 26839  99.9184 139.8404 0083357 153.6695 272.0279 13.29980012328502
0 DELTA 1 DEB
1 26839U 75052KT  19182.75610281 +.00000086 +00000-0 +26939-3 0  9994
2 26839 099.9184 139.4893 0083338 154.5405 323.1681 13.29979849328374
0 DELTA 1 DEB
1 26840U 75052KU  19183.12468968  .00000234  00000-0  99879-3 0  9999
2 26840  99.7021  59.2235 0365177 158.1684 356.3403 12.72308990269617
0 DELTA 1 DEB
1 26842U 75052KW  19182.69439985 +.00000970 +00000-0 +11243-2 0  9994
2 26842 099.6835 093.6553 0048169 024.4673 005.5532 13.71192394068283
0 DELTA 1 DEB
1 26842U 75052KW  19183.23024709  .00000992  00000-0  11487-2 0  9993
2 26842  99.6834  94.1954 0048129  23.1807 130.5611 13.71193655 68440
0 DELTA 1 DEB
1 26843U 75052KX  19182.22930737 -.00000021 +00000-0 +45178-4 0  9999
2 26843 099.6703 177.8924 0116899 324.2751 098.4038 13.21715660202889
0 DELTA 1 DEB
1 26843U 75052KX  19183.21339330 -.00000028  00000-0  28991-4 0  9992
2 26843  99.6703 178.8020 0116855 321.9362 100.8702 13.21715697203260
0 DELTA 1 DEB
1 26844U 75052KY  19182.66363664 +.00000078 +00000-0 +16554-3 0  9993
2 26844 099.8358 074.8303 0048261 011.8214 044.4719 13.59753763347249
0 DELTA 1 DEB
1 26846U 75052LA  19182.27420685 +.00000099 +00000-0 +35762-3 0  9994
2 26846 099.7333 032.4454 0172562 067.4875 356.4014 13.11849408062903
0 DELTA 1 DEB
1 26846U 75052LA  19183.05844995  .00000071  00000-0  28333-3 0  9991
2 26846  99.7332  33.1622 0172566  65.6830 100.0998 13.11849526 63458
0 SL-3 DEB
1 26848U 75124C   19182.97221747  .00000171  00000-0  91084-4 0  9992
2 26848  81.2754 158.0233 0009173 325.1479  34.9090 14.09438882  1193
0 SL-3 DEB
1 26848U 75124C   19182.90122771 +.00000173 +00000-0 +92120-4 0  9996
2 26848 081.2754 158.0921 0009180 325.3427 034.7145 14.09438866001023
0 ASTRA 2C
1 26853U 01025A   19182.88437760 +.00000140 +00000-0 +00000-0 0  9991
2 26853 002.0236 088.0545 0002511 008.4438 165.1922 01.00272618019569
0 ASTRA 2C
1 26853U 01025A   19183.74589069  .00000138  00000-0  00000+0 0  9993
2 26853   2.0256  88.0506 0002503   8.9891 115.6473  1.00272890 66090
0 SL-12 R/B(2)
1 26855U 01025C   19182.72132516 -.00000136 +00000-0 +00000-0 0  9993
2 26855 016.7882 001.1920 4992489 150.2185 346.7923 01.84793646121781
0 ICO F2
1 26857U 01026A   19182.36242644 -.00000016 +00000-0 +00000-0 0  9997
2 26857 044.8579 110.4277 0014169 145.5035 214.6011 03.92404424105938
0 ICO F2
1 26857U 01026A   19183.38160634 -.00000016  00000-0  00000+0 0  9997
2 26857  44.8582 110.1927 0014181 145.6706 214.4350  3.92404406261499
0 ARTEMIS
1 26863U 01029A   19183.35743839 -.00000292  00000-0  00000+0 0  9994
2 26863  13.3590  26.0167 0008349  91.1770  87.7938  0.99295409 66853
0 ARTEMIS
1 26863U 01029A   19182.83945109 -.00000283 +00000-0 +00000-0 0  9991
2 26863 013.3587 026.0211 0008347 091.2770 262.5255 00.99295517018603
0 GOES 12
1 26871U 01031A   19182.84328948 -.00000174 +00000-0 +00000-0 0  9999
2 26871 007.6293 054.9755 0007030 269.9848 075.3924 00.99141053065557
0 GOES 12
1 26871U 01031A   19183.39216056 -.00000190  00000-0  00000+0 0  9993
2 26871   7.6302  54.9718 0007012 269.8356 271.4452  0.99141184 65538
0 GOES 12
1 26871U 01031A   19183.39216056 -.00000190  00000-0  00000+0 0  9993
2 26871   7.6302  54.9718 0007012 269.8356 271.4452  0.99141184 65538
0 IUS R/B(1)
1 26882U 01033C   19181.70321157  .00029648  00000-0  27940-1 0  9991
2 26882  28.1007 294.3381 7132550  66.9656 350.6288  2.42709652    06
0 IUS R/B(2)
1 26883U 01033D   19182.16122367 +.00000100 +00000-0 +00000-0 0  9994
2 26883 010.5109 033.0075 0009784 321.8665 038.0648 00.99887752000365
0 IUS R/B(2)
1 26883U 01033D   19183.16233003  .00000103  00000-0  00000+0 0  9997
2 26883  10.5119  33.0003 0009787 321.8902  38.0475  0.99888091   370
0 COSMOS 2379
1 26892U 01037A   19182.65180559 +.00000051 +00000-0 +00000-0 0  9994
2 26892 011.0799 031.6635 0002367 218.6613 318.3218 01.00374532065366
0 COSMOS 2379
1 26892U 01037A   19183.68027866  .00000047  00000-0  00000+0 0  9993
2 26892  11.0808  31.6561 0002331 220.2360 328.3969  1.00374735 65385
0 SL-12 R/B(2)
1 26895U 01037D   19182.74226507 +.00000132 +00000-0 +00000-0 0  9991
2 26895 011.0521 031.8515 0023801 012.6745 173.2095 01.00259698065305
0 LRE
1 26898U 01038A   19183.09245151  .00002751  00000-0  24855-3 0  9996
2 26898  28.3748 103.9687 7123699 332.2912   3.4406  2.50596171155396
0 INTELSAT 902
1 26900U 01039A   19182.89205435 +.00000038 +00000-0 +00000-0 0  9998
2 26900 000.0143 315.1736 0003055 145.0365 202.5593 01.00273587065224
0 COSMOS 1249 COOLANT
1 26911U 81021Q   19182.26714326 -.00000086 +00000-0 +34822-5 0  9992
2 26911 064.9622 143.2253 0052622 339.0192 086.4808 13.90819880303955
0 COSMOS 1249 COOLANT
1 26911U 81021Q   19183.27406428 -.00000086  00000-0  35337-5 0  9997
2 26911  64.9623 140.5845 0052683 338.7416  88.0322 13.90819882927419
0 COSMOS 1217 DEB
1 26918U 80085G   19183.43513008 -.00000585  00000-0  00000+0 0  9991
2 26918  70.7324 312.4067 6089799 311.3705  10.2207  2.05533044163459
0 ATLAS 55E DEB
1 26921U 85093C   19183.57192400  .00000022  00000-0  00000+0 0  9998
2 26921  63.5155 175.0032 5726473  15.8658  37.1941  3.89997875381217
0 ARIANE 1 DEB
1 26922U 84023H   19183.52096668 -.00000027  00000-0  00000+0 0  9991
2 26922   8.8153 219.8707 6472661 217.1185 349.4550  2.77133826213712
0 ARIANE 1 DEB
1 26922U 84023H   19182.87722425 -.00000027 +00000-0 +00000-0 0  9996
2 26922 008.8169 220.1498 6472623 216.5769 067.2062 02.77133841213495
0 EUTELSAT 12 WEST B
1 26927U 01042A   19182.84990206 -.00000095 +00000-0 +00000-0 0  9997
2 26927 000.2630 093.1766 0006592 359.5946 120.2855 01.00271072065020
0 EUTELSAT 12 WEST B
1 26927U 01042A   19183.37967027 -.00000097  00000-0  00000+0 0  9992
2 26927   0.2642  93.1976 0006584 359.7992 311.2967  1.00270921 65040
0 PCSAT
1 26931U 01043C   19182.85430660 -.00000059 +00000-0 +91548-5 0  9999
2 26931 067.0519 329.7140 0006877 278.2105 081.8216 14.30545856926789
0 PCSAT
1 26931U 01043C   19183.13396350 -.00000056  00000-0  10315-4 0  9997
2 26931  67.0519 328.9923 0006881 278.1994  81.8326 14.30545883926893
0 SL-12 R/B(2)
1 26939U 01045D   19183.11113650 -.00000148  00000-0  00000+0 0  9992
2 26939  11.8847  30.7448 0029614 326.6137  43.2452  1.00209813 65360
0 SL-12 R/B(2)
1 26939U 01045D   19182.60858580 -.00000148 +00000-0 +00000-0 0  9994
2 26939 011.8843 030.7490 0029624 326.5971 221.9566 01.00209848065234
0 TES
1 26957U 01049A   19182.89326746 +.00000379 +00000-0 +26306-4 0  9999
2 26957 097.6984 295.3940 0038363 356.3170 003.7770 15.11183641970858
0 TES
1 26957U 01049A   19183.22434072  .00000403  00000-0  27688-4 0  9991
2 26957  97.6984 295.7271 0038383 355.1608   4.9255 15.11184102970904
0 PROBA 1
1 26958U 01049B   19183.16838470  .00000417  00000-0  41182-4 0  9995
2 26958  97.6692 139.2141 0072635 355.8057   4.2561 14.95391447962842
0 PROBA 1
1 26958U 01049B   19183.43603658  .00000434  00000-0  42655-4 0  9998
2 26958  97.6694 139.4761 0072649 354.9276   5.1202 14.95391876962884
0 PROBA 1
1 26958U 01049B   19183.83751476  .00000519  00000-0  49949-4 0  9991
2 26958  97.6696 139.8691 0072665 353.5518   6.4789 14.95392924962940
